{
"type": "FeatureCollection",
"name": "byrd_tree_walk",
"crs": { "type": "name", "properties": { "name": "urn:ogc:def:crs:OGC:1.3:CRS84" } },
"features": [
{ "type": "Feature", "properties": { "leaf_type": "", "species": "", "species:en": "", "description": "<h1>Byrd Park Vita Course</h1><h2>Tree Tour</h2>" }, "geometry": { "type": "Point", "coordinates": [ -77.478251407949671, 37.544349878599128 ] } },
{ "type": "Feature", "properties": { "leaf_type": "broadleaved", "species": "Ulmus americana", "species:en": "American Elm", "description": "Native<br><a href=\"https://dendro.cnre.vt.edu/dendrology/syllabus/factsheet.cfm?ID=41\">Virginia Tech fact sheet</a>" }, "geometry": { "type": "Point", "coordinates": [ -77.478330709427638, 37.544317862474472 ] } },
{ "type": "Feature", "properties": { "leaf_type": "broadleaved", "species": "Acer saccharum", "species:en": "Sugar maple", "description": "Native<br><a href=\"https://dendro.cnre.vt.edu/dendrology/syllabus/factsheet.cfm?ID=2\">Virginia Tech fact sheet</a>" }, "geometry": { "type": "Point", "coordinates": [ -77.47828342407432, 37.544024299239254 ] } },
{ "type": "Feature", "properties": { "leaf_type": "broadleaved", "species": "Fagus grandifolia", "species:en": "American Beech", "description": "Native<br><a href=\"https://dendro.cnre.vt.edu/dendrology/syllabus/factsheet.cfm?ID=47\">Virginia Tech fact sheet</a>" }, "geometry": { "type": "Point", "coordinates": [ -77.479110651048472, 37.542645943227676 ] } },
{ "type": "Feature", "properties": { "leaf_type": "broadleaved", "species": "Liquidambar styraciflua", "species:en": "Sweetgum", "description": "Native<br><a href=\"https://dendro.cnre.vt.edu/dendrology/syllabus/factsheet.cfm?ID=53\">Virginia Tech fact sheet</a>" }, "geometry": { "type": "Point", "coordinates": [ -77.479593129850258, 37.541257613514084 ] } },
{ "type": "Feature", "properties": { "leaf_type": "broadleaved", "species": "Quercus alba", "species:en": "White oak", "description": "Native<br><a href=\"https://dendro.cnre.vt.edu/dendrology/syllabus/factsheet.cfm?ID=35\">Virginia Tech fact sheet</a>" }, "geometry": { "type": "Point", "coordinates": [ -77.480083715390975, 37.540997544070805 ] } },
{ "type": "Feature", "properties": { "leaf_type": "broadleaved", "species": "Ulmus alata", "species:en": "Winged Elm", "description": "Native<br><a href=\"https://dendro.cnre.vt.edu/dendrology/syllabus/factsheet.cfm?ID=181\">Virginia Tech fact sheet</a>" }, "geometry": { "type": "Point", "coordinates": [ -77.480235422566224, 37.541208357937705 ] } },
{ "type": "Feature", "properties": { "leaf_type": "broadleaved", "species": "Quercus bicolor", "species:en": "Swamp white oak", "description": "Native<br><a href=\"https://dendro.cnre.vt.edu/dendrology/syllabus/factsheet.cfm?ID=313\">Virginia Tech fact sheet</a>" }, "geometry": { "type": "Point", "coordinates": [ -77.480168635980419, 37.541414387608263 ] } },
{ "type": "Feature", "properties": { "leaf_type": "broadleaved", "species": "Quercus falcata", "species:en": "Southern red oak", "description": "Native<br><a href=\"https://dendro.cnre.vt.edu/dendrology/syllabus/factsheet.cfm?ID=68\">Virginia Tech fact sheet</a>" }, "geometry": { "type": "Point", "coordinates": [ -77.480503372901723, 37.541756079947035 ] } },
{ "type": "Feature", "properties": { "leaf_type": "broadleaved", "species": "Acer rubrum", "species:en": "Red maple", "description": "Native<br><a href=\"https://dendro.cnre.vt.edu/dendrology/syllabus/factsheet.cfm?ID=1\">Virginia Tech fact sheet</a>" }, "geometry": { "type": "Point", "coordinates": [ -77.481032870347775, 37.542725922245943 ] } },
{ "type": "Feature", "properties": { "leaf_type": "broadleaved", "species": "Tilia americana", "species:en": "American basswood", "description": "Native<br><a href=\"https://dendro.cnre.vt.edu/dendrology/syllabus/factsheet.cfm?ID=88\">Virginia Tech fact sheet</a>" }, "geometry": { "type": "Point", "coordinates": [ -77.481089514260617, 37.543710541217756 ] } },
{ "type": "Feature", "properties": { "leaf_type": "broadleaved", "species": "Quercus phellos", "species:en": "Willow oak", "description": "Native<br><a href=\"https://dendro.cnre.vt.edu/dendrology/syllabus/factsheet.cfm?ID=75\">Virginia Tech fact sheet</a>" }, "geometry": { "type": "Point", "coordinates": [ -77.481811601010321, 37.543148042535506 ] } },
{ "type": "Feature", "properties": { "leaf_type": "broadleaved", "species": "Celtis laevigata", "species:en": "Sugarberry", "description": "Native<br><a href=\"https://dendro.cnre.vt.edu/dendrology/syllabus/factsheet.cfm?ID=275\">Virginia Tech fact sheet</a>" }, "geometry": { "type": "Point", "coordinates": [ -77.479457184459406, 37.543732213671355 ] } },
{ "type": "Feature", "properties": { "leaf_type": "broadleaved", "species": "Celtis Occidentalis", "species:en": "Hackberry", "description": "Native<br><a href=\"https://dendro.cnre.vt.edu/dendrology/syllabus/factsheet.cfm?ID=26\">Virginia Tech fact sheet</a>" }, "geometry": { "type": "Point", "coordinates": [ -77.479082842078924, 37.543786394805366 ] } },
{ "type": "Feature", "properties": { "leaf_type": "broadleaved", "species": "Liriodendron tulipifera", "species:en": "Tulip (Yellow) Poplar", "description": "Native<br><a href=\"https://dendro.cnre.vt.edu/dendrology/syllabus/factsheet.cfm?ID=54\">Virginia Tech fact sheet</a>" }, "geometry": { "type": "Point", "coordinates": [ -77.479333648077954, 37.541503669000434 ] } }
]
}
