{
"type": "FeatureCollection",
"name": "belle_isle_tree_walk",
"features": [
{ "type": "Feature", "properties": { "leaf_type": "", "species": "", "species:en": "", "description": "<h1>Belle Isle</h1><h2>Tree Tour</h2><p>This tree walk was created by Richmond Tree Stewards to enrich your experience of this beautiful site. It features trees that can be viewed from well-established paths. Most are mature, though we have tagged a few smaller trees. Tags give the common and Latin names and have a QR code which accesses tree-specific information and images for that species.</p><p>Look for pawpaws in the fall and smell sweet magnolias in the summer. Autumn brings a rich color to the dogwoods, sweet gums, and sassafras. You can learn to identify the flaky bark of the river birch, pebbly texture of hackberry, and mottled green and white trunks of the sycamore, all year. There's something to enjoy in every season and you'll want to return again and again.</p>" }, "geometry": { "type": "Point", "coordinates": [ -77.4504193, 37.5314758 ] } },
{ "type": "Feature", "id": "node/14161431053", "properties": { "@id": "14161431053", "genus": "Platanus", "leaf_type": "broadleaved", "natural": "tree", "species": "occidentalis", "species:en": "American sycamore", "description": "Native<br><a href=\"https://dendro.cnre.vt.edu/dendrology/syllabus/factsheet.cfm?ID=36\">Virginia Tech fact sheet</a>" }, "geometry": { "type": "Point", "coordinates": [ -77.4531621, 37.5302689 ] } },
{ "type": "Feature", "id": "node/14161431054", "properties": { "@id": "14161431054", "genus": "Liriodendron", "leaf_type": "broadleaved", "natural": "tree", "species": "tulipifera", "species:en": "Tulip (yellow) poplar", "description": "Native<br><a href=\"https://dendro.cnre.vt.edu/dendrology/syllabus/factsheet.cfm?ID=54\">Virginia Tech fact sheet</a>" }, "geometry": { "type": "Point", "coordinates": [ -77.4532756, 37.5302262 ] } },
{ "type": "Feature", "id": "node/14161431055", "properties": { "@id": "14161431055", "genus": "Platanus", "leaf_type": "broadleaved", "natural": "tree", "species": "occidentalis", "species:en": "American sycamore", "description": "Native<br><a href=\"https://dendro.cnre.vt.edu/dendrology/syllabus/factsheet.cfm?ID=36\">Virginia Tech fact sheet</a>" }, "geometry": { "type": "Point", "coordinates": [ -77.4538596, 37.5300934 ] } },
{ "type": "Feature", "id": "node/14161431056", "properties": { "@id": "14161431056", "genus": "Ailanthus", "leaf_type": "broadleaved", "natural": "tree", "species": "altissima", "species:en": "Tree of heaven", "description": "Invasive<br><a href=\"https://dendro.cnre.vt.edu/dendrology/syllabus/factsheet.cfm?ID=7\">Virginia Tech fact sheet</a>" }, "geometry": { "type": "Point", "coordinates": [ -77.4540823, 37.5299913 ] } },
{ "type": "Feature", "id": "node/14161431057", "properties": { "@id": "14161431057", "genus": "Ulmus", "leaf_type": "broadleaved", "natural": "tree", "species": "alata", "species:en": "Chestnut oak", "description": "Native<br><a href=\"https://dendro.cnre.vt.edu/dendrology/syllabus/factsheet.cfm?ID=181\">Virginia Tech fact sheet</a>" }, "geometry": { "type": "Point", "coordinates": [ -77.4541445, 37.5299587 ] } },
{ "type": "Feature", "id": "node/14161431058", "properties": { "@id": "14161431058", "genus": "Quercus", "leaf_type": "broadleaved", "natural": "tree", "species": "montana", "species:en": "American sycamore", "description": "Native<br><a href=\"https://dendro.cnre.vt.edu/dendrology/syllabus/factsheet.cfm?ID=76\">Virginia Tech fact sheet</a>" }, "geometry": { "type": "Point", "coordinates": [ -77.4545074, 37.5297957 ] } },
{ "type": "Feature", "id": "node/14161431059", "properties": { "@id": "14161431059", "genus": "Celtis", "leaf_type": "broadleaved", "natural": "tree", "species": "occidentalis", "species:en": "Hackberry", "description": "Native<br><a href=\"https://dendro.cnre.vt.edu/dendrology/syllabus/factsheet.cfm?ID=26\">Virginia Tech fact sheet</a>" }, "geometry": { "type": "Point", "coordinates": [ -77.45566, 37.5290642 ] } },
{ "type": "Feature", "id": "node/14161431061", "properties": { "@id": "14161431061", "genus": "Prunus", "leaf_type": "broadleaved", "natural": "tree", "species": "serotina", "species:en": "Black cherry", "description": "Native<br><a href=\"https://dendro.cnre.vt.edu/dendrology/syllabus/factsheet.cfm?ID=36\">Virginia Tech fact sheet</a>" }, "geometry": { "type": "Point", "coordinates": [ -77.4558894, 37.5289164 ] } },
{ "type": "Feature", "id": "node/14161431062", "properties": { "@id": "14161431062", "genus": "Quercus", "leaf_type": "broadleaved", "natural": "tree", "species": "phellos", "species:en": "Willow oak", "description": "Native<br><a href=\"https://dendro.cnre.vt.edu/dendrology/syllabus/factsheet.cfm?ID=75\">Virginia Tech fact sheet</a>" }, "geometry": { "type": "Point", "coordinates": [ -77.4558617, 37.5288765 ] } },
{ "type": "Feature", "id": "node/14161431063", "properties": { "@id": "14161431063", "genus": "Betula", "leaf_type": "broadleaved", "natural": "tree", "species": "nigra", "species:en": "River birch", "description": "Native<br><a href=\"https://dendro.cnre.vt.edu/dendrology/syllabus/factsheet.cfm?ID=13\">Virginia Tech fact sheet</a>" }, "geometry": { "type": "Point", "coordinates": [ -77.4559062, 37.5288478 ] } },
{ "type": "Feature", "id": "node/14161431064", "properties": { "@id": "14161431064", "genus": "Sassafras ", "leaf_type": "broadleaved", "natural": "tree", "species": "albidum", "species:en": "Sassafras", "description": "Native<br><a href=\"https://dendro.cnre.vt.edu/dendrology/syllabus/factsheet.cfm?ID=84\">Virginia Tech fact sheet</a>" }, "geometry": { "type": "Point", "coordinates": [ -77.4571511, 37.5281793 ] } },
{ "type": "Feature", "id": "node/14161431065", "properties": { "@id": "14161431065", "genus": "", "leaf_type": "broadleaved", "natural": "tree", "note": "&quot;Mystery Tree&quot; - Liquidambar styraciflua", "species": "", "species:en": "Mystery Tree", "description": "Native<br>See if you can guess what tree this is!<br><a href=\"https://dendro.cnre.vt.edu/dendrology/syllabus/factsheet.cfm?ID=53\">Virginia Tech fact sheet</a>" }, "geometry": { "type": "Point", "coordinates": [ -77.4570749, 37.5278595 ] } },
{ "type": "Feature", "id": "node/14161431066", "properties": { "@id": "14161431066", "genus": "Celtis", "leaf_type": "broadleaved", "natural": "tree", "species": "occidentalis", "species:en": "Hackberry", "description": "Native<br><a href=\"https://dendro.cnre.vt.edu/dendrology/syllabus/factsheet.cfm?ID=26\">Virginia Tech fact sheet</a>" }, "geometry": { "type": "Point", "coordinates": [ -77.4571499, 37.5276003 ] } },
{ "type": "Feature", "id": "node/14161431067", "properties": { "@id": "14161431067", "circumference": "2.2", "genus": "Quercus", "leaf_type": "broadleaved", "natural": "tree", "species": "phellos", "species:en": "Willow oak", "description": "Native<br><a href=\"https://dendro.cnre.vt.edu/dendrology/syllabus/factsheet.cfm?ID=75\">Virginia Tech fact sheet</a>" }, "geometry": { "type": "Point", "coordinates": [ -77.4534293, 37.5285106 ] } },
{ "type": "Feature", "id": "node/14161431068", "properties": { "@id": "14161431068", "genus": "Juglans", "leaf_type": "broadleaved", "natural": "tree", "species": "nigra", "species:en": "Black walnut", "description": "Native<br><a href=\"https://dendro.cnre.vt.edu/dendrology/syllabus/factsheet.cfm?ID=32\">Virginia Tech fact sheet</a>" }, "geometry": { "type": "Point", "coordinates": [ -77.4521013, 37.5291083 ] } },
{ "type": "Feature", "id": "node/14161431051", "properties": { "@id": "14161431051", "genus": "Celtis", "leaf_type": "broadleaved", "natural": "tree", "species": "occidentalis", "species:en": "Hackberry", "description": "Native<br><a href=\"https://dendro.cnre.vt.edu/dendrology/syllabus/factsheet.cfm?ID=26\">Virginia Tech fact sheet</a>" }, "geometry": { "type": "Point", "coordinates": [ -77.4516692, 37.5288351 ] } },
{ "type": "Feature", "id": "node/14161431052", "properties": { "@id": "14161431052", "genus": "Platanus", "leaf_type": "broadleaved", "natural": "tree", "species": "occidentalis", "species:en": "American sycamore", "description": "Native<br><a href=\"https://dendro.cnre.vt.edu/dendrology/syllabus/factsheet.cfm?ID=36\">Virginia Tech fact sheet</a>" }, "geometry": { "type": "Point", "coordinates": [ -77.4511053, 37.5297765 ] } }
]
}
